SL-3 R/B                
1 13403U 82079B   26056.78827131  .00006112  00000+0  24486-3 0  9999
2 13403  81.1460 207.1267 0024591 204.9889 155.0156 15.24590097375885
SL-14 R/B               
1 13553U 82092B   26056.74921332  .00000462  00000+0  49140-4 0  9991
2 13553  82.5711 152.5655 0019842 345.1420 177.3576 14.86652105327157
SL-3 R/B                
1 13819U 83010B   26056.85265027  .00015396  00000+0  31420-3 0  9994
2 13819  81.1044  16.7528 0018643  88.2238 272.1142 15.45865966356114
SL-3 R/B                
1 14208U 83075B   26056.78273720  .00010565  00000+0  28236-3 0  9993
2 14208  97.6143  60.9132 0019628 272.8455  87.0543 15.38082572328323
COSMOS 1536             
1 14699U 84013A   26056.70226210  .00005752  00000+0  23816-3 0  9995
2 14699  82.5452 119.7651 0013278 329.8422  30.2049 15.23645810270796
SL-14 R/B               
1 14820U 84027B   26056.50502251  .00000430  00000+0  46359-4 0  9992
2 14820  82.5381 256.4439 0018415  18.6401 341.5486 14.85961891245820
SL-8 R/B                
1 15483U 85006B   26056.07319457  .00000125  00000+0  50064-4 0  9991
2 15483  74.0443 284.3657 0018962 204.7787 263.7728 14.37775455152215
SL-12 R/B(2)            
1 15772U 85042D   26056.53252483 -.00000007  00000+0  18040-4 0  9996
2 15772  71.1072 113.4151 0033878 147.9625 315.0081 14.21978774112665
SL-14 R/B               
1 15945U 85069B   26056.42617317  .00000546  00000+0  59001-4 0  9995
2 15945  82.5259  36.4648 0017490 230.0256 129.9425 14.86416438171014
SL-16 R/B               
1 16182U 85097B   26056.49254189  .00000260  00000+0  15425-3 0  9995
2 16182  71.0037 166.2305 0009773 273.6508 169.8036 14.16597364 85505
SL-14 R/B               
1 16496U 86006B   26056.54104190  .00000552  00000+0  56096-4 0  9990
2 16496  82.5239 271.1739 0075479 313.8296  45.6696 14.86796708147409
COSMOS 1743             
1 16719U 86034A   26056.50356190  .00035197  00000+0  47556-3 0  9997
2 16719  82.5312  86.6124 0003140   0.7941 359.3319 15.57584778178357
