CCSDS_OMM_VERS = 2.0
CREATION_DATE  = 
ORIGINATOR     = 

OBJECT_NAME    = SL-3 R/B
OBJECT_ID      = 1982-079B
CENTER_NAME    = EARTH
REF_FRAME      = TEME
TIME_SYSTEM    = UTC
MEAN_ELEMENT_THEORY = SGP/SGP4

EPOCH          = 2026-02-25T18:55:06.641184
MEAN_MOTION    = 15.24590097
ECCENTRICITY   = .0024591
INCLINATION    = 81.1460
RA_OF_ASC_NODE = 207.1267
ARG_OF_PERICENTER = 204.9889
MEAN_ANOMALY   = 155.0156

EPHEMERIS_TYPE = 0
CLASSIFICATION_TYPE = U
NORAD_CAT_ID   = 13403
ELEMENT_SET_NO = 999
REV_AT_EPOCH   = 37588
BSTAR          = .24486E-3
MEAN_MOTION_DOT = .6112E-4
MEAN_MOTION_DDOT = 0

CCSDS_OMM_VERS = 2.0
CREATION_DATE  = 
ORIGINATOR     = 

OBJECT_NAME    = SL-14 R/B
OBJECT_ID      = 1982-092B
CENTER_NAME    = EARTH
REF_FRAME      = TEME
TIME_SYSTEM    = UTC
MEAN_ELEMENT_THEORY = SGP/SGP4

EPOCH          = 2026-02-25T17:58:52.030848
MEAN_MOTION    = 14.86652105
ECCENTRICITY   = .0019842
INCLINATION    = 82.5711
RA_OF_ASC_NODE = 152.5655
ARG_OF_PERICENTER = 345.1420
MEAN_ANOMALY   = 177.3576

EPHEMERIS_TYPE = 0
CLASSIFICATION_TYPE = U
NORAD_CAT_ID   = 13553
ELEMENT_SET_NO = 999
REV_AT_EPOCH   = 32715
BSTAR          = .4914E-4
MEAN_MOTION_DOT = .462E-5
MEAN_MOTION_DDOT = 0

CCSDS_OMM_VERS = 2.0
CREATION_DATE  = 
ORIGINATOR     = 

OBJECT_NAME    = SL-3 R/B
OBJECT_ID      = 1983-010B
CENTER_NAME    = EARTH
REF_FRAME      = TEME
TIME_SYSTEM    = UTC
MEAN_ELEMENT_THEORY = SGP/SGP4

EPOCH          = 2026-02-25T20:27:48.983328
MEAN_MOTION    = 15.45865966
ECCENTRICITY   = .0018643
INCLINATION    = 81.1044
RA_OF_ASC_NODE = 16.7528
ARG_OF_PERICENTER = 88.2238
MEAN_ANOMALY   = 272.1142

EPHEMERIS_TYPE = 0
CLASSIFICATION_TYPE = U
NORAD_CAT_ID   = 13819
ELEMENT_SET_NO = 999
REV_AT_EPOCH   = 35611
BSTAR          = .3142E-3
MEAN_MOTION_DOT = .15396E-3
MEAN_MOTION_DDOT = 0

CCSDS_OMM_VERS = 2.0
CREATION_DATE  = 
ORIGINATOR     = 

OBJECT_NAME    = SL-3 R/B
OBJECT_ID      = 1983-075B
CENTER_NAME    = EARTH
REF_FRAME      = TEME
TIME_SYSTEM    = UTC
MEAN_ELEMENT_THEORY = SGP/SGP4

EPOCH          = 2026-02-25T18:47:08.494080
MEAN_MOTION    = 15.38082572
ECCENTRICITY   = .0019628
INCLINATION    = 97.6143
RA_OF_ASC_NODE = 60.9132
ARG_OF_PERICENTER = 272.8455
MEAN_ANOMALY   = 87.0543

EPHEMERIS_TYPE = 0
CLASSIFICATION_TYPE = U
NORAD_CAT_ID   = 14208
ELEMENT_SET_NO = 999
REV_AT_EPOCH   = 32832
BSTAR          = .28236E-3
MEAN_MOTION_DOT = .10565E-3
MEAN_MOTION_DDOT = 0

CCSDS_OMM_VERS = 2.0
CREATION_DATE  = 
ORIGINATOR     = 

OBJECT_NAME    = COSMOS 1536
OBJECT_ID      = 1984-013A
CENTER_NAME    = EARTH
REF_FRAME      = TEME
TIME_SYSTEM    = UTC
MEAN_ELEMENT_THEORY = SGP/SGP4

EPOCH          = 2026-02-25T16:51:15.445440
MEAN_MOTION    = 15.23645810
ECCENTRICITY   = .0013278
INCLINATION    = 82.5452
RA_OF_ASC_NODE = 119.7651
ARG_OF_PERICENTER = 329.8422
MEAN_ANOMALY   = 30.2049

EPHEMERIS_TYPE = 0
CLASSIFICATION_TYPE = U
NORAD_CAT_ID   = 14699
ELEMENT_SET_NO = 999
REV_AT_EPOCH   = 27079
BSTAR          = .23816E-3
MEAN_MOTION_DOT = .5752E-4
MEAN_MOTION_DDOT = 0

CCSDS_OMM_VERS = 2.0
CREATION_DATE  = 
ORIGINATOR     = 

OBJECT_NAME    = SL-14 R/B
OBJECT_ID      = 1984-027B
CENTER_NAME    = EARTH
REF_FRAME      = TEME
TIME_SYSTEM    = UTC
MEAN_ELEMENT_THEORY = SGP/SGP4

EPOCH          = 2026-02-25T12:07:13.944864
MEAN_MOTION    = 14.85961891
ECCENTRICITY   = .00184159
INCLINATION    = 82.5381
RA_OF_ASC_NODE = 256.4439
ARG_OF_PERICENTER = 18.6401
MEAN_ANOMALY   = 341.5486

EPHEMERIS_TYPE = 0
CLASSIFICATION_TYPE = U
NORAD_CAT_ID   = 14820
ELEMENT_SET_NO = 999
REV_AT_EPOCH   = 24582
BSTAR          = .46359279E-4
MEAN_MOTION_DOT = .43E-5
MEAN_MOTION_DDOT = 0

CCSDS_OMM_VERS = 2.0
CREATION_DATE  = 
ORIGINATOR     = 

OBJECT_NAME    = SL-8 R/B
OBJECT_ID      = 1985-006B
CENTER_NAME    = EARTH
REF_FRAME      = TEME
TIME_SYSTEM    = UTC
MEAN_ELEMENT_THEORY = SGP/SGP4

EPOCH          = 2026-02-25T01:45:24.010848
MEAN_MOTION    = 14.37775455
ECCENTRICITY   = .00189622
INCLINATION    = 74.0443
RA_OF_ASC_NODE = 284.3657
ARG_OF_PERICENTER = 204.7787
MEAN_ANOMALY   = 263.7728

EPHEMERIS_TYPE = 0
CLASSIFICATION_TYPE = U
NORAD_CAT_ID   = 15483
ELEMENT_SET_NO = 999
REV_AT_EPOCH   = 15221
BSTAR          = .50064367E-4
MEAN_MOTION_DOT = .125E-5
MEAN_MOTION_DDOT = 0

CCSDS_OMM_VERS = 2.0
CREATION_DATE  = 
ORIGINATOR     = 

OBJECT_NAME    = SL-12 R/B(2)
OBJECT_ID      = 1985-042D
CENTER_NAME    = EARTH
REF_FRAME      = TEME
TIME_SYSTEM    = UTC
MEAN_ELEMENT_THEORY = SGP/SGP4

EPOCH          = 2026-02-25T12:46:50.145312
MEAN_MOTION    = 14.21978774
ECCENTRICITY   = .00338789
INCLINATION    = 71.1072
RA_OF_ASC_NODE = 113.4151
ARG_OF_PERICENTER = 147.9625
MEAN_ANOMALY   = 315.0081

EPHEMERIS_TYPE = 0
CLASSIFICATION_TYPE = U
NORAD_CAT_ID   = 15772
ELEMENT_SET_NO = 999
REV_AT_EPOCH   = 11266
BSTAR          = .18039828E-4
MEAN_MOTION_DOT = -.7E-7
MEAN_MOTION_DDOT = 0

CCSDS_OMM_VERS = 2.0
CREATION_DATE  = 
ORIGINATOR     = 

OBJECT_NAME    = SL-14 R/B
OBJECT_ID      = 1985-069B
CENTER_NAME    = EARTH
REF_FRAME      = TEME
TIME_SYSTEM    = UTC
MEAN_ELEMENT_THEORY = SGP/SGP4

EPOCH          = 2026-02-25T10:13:41.361888
MEAN_MOTION    = 14.86416438
ECCENTRICITY   = .001749
INCLINATION    = 82.5259
RA_OF_ASC_NODE = 36.4648
ARG_OF_PERICENTER = 230.0256
MEAN_ANOMALY   = 129.9425

EPHEMERIS_TYPE = 0
CLASSIFICATION_TYPE = U
NORAD_CAT_ID   = 15945
ELEMENT_SET_NO = 999
REV_AT_EPOCH   = 17101
BSTAR          = .59000782E-4
MEAN_MOTION_DOT = .546E-5
MEAN_MOTION_DDOT = 0

CCSDS_OMM_VERS = 2.0
CREATION_DATE  = 
ORIGINATOR     = 

OBJECT_NAME    = SL-16 R/B
OBJECT_ID      = 1985-097B
CENTER_NAME    = EARTH
REF_FRAME      = TEME
TIME_SYSTEM    = UTC
MEAN_ELEMENT_THEORY = SGP/SGP4

EPOCH          = 2026-02-25T11:49:15.619296
MEAN_MOTION    = 14.16597364
ECCENTRICITY   = .00097736
INCLINATION    = 71.0037
RA_OF_ASC_NODE = 166.2305
ARG_OF_PERICENTER = 273.6508
MEAN_ANOMALY   = 169.8036

EPHEMERIS_TYPE = 0
CLASSIFICATION_TYPE = U
NORAD_CAT_ID   = 16182
ELEMENT_SET_NO = 999
REV_AT_EPOCH   = 8550
BSTAR          = .15424883E-3
MEAN_MOTION_DOT = .26E-5
MEAN_MOTION_DDOT = 0

CCSDS_OMM_VERS = 2.0
CREATION_DATE  = 
ORIGINATOR     = 

OBJECT_NAME    = SL-14 R/B
OBJECT_ID      = 1986-006B
CENTER_NAME    = EARTH
REF_FRAME      = TEME
TIME_SYSTEM    = UTC
MEAN_ELEMENT_THEORY = SGP/SGP4

EPOCH          = 2026-02-25T12:59:06.020160
MEAN_MOTION    = 14.86796708
ECCENTRICITY   = .0075479
INCLINATION    = 82.5239
RA_OF_ASC_NODE = 271.1739
ARG_OF_PERICENTER = 313.8296
MEAN_ANOMALY   = 45.6696

EPHEMERIS_TYPE = 0
CLASSIFICATION_TYPE = U
NORAD_CAT_ID   = 16496
ELEMENT_SET_NO = 999
REV_AT_EPOCH   = 14740
BSTAR          = .56096E-4
MEAN_MOTION_DOT = .552E-5
MEAN_MOTION_DDOT = 0

CCSDS_OMM_VERS = 2.0
CREATION_DATE  = 
ORIGINATOR     = 

OBJECT_NAME    = COSMOS 1743
OBJECT_ID      = 1986-034A
CENTER_NAME    = EARTH
REF_FRAME      = TEME
TIME_SYSTEM    = UTC
MEAN_ELEMENT_THEORY = SGP/SGP4

EPOCH          = 2026-02-25T12:05:07.748160
MEAN_MOTION    = 15.57584778
ECCENTRICITY   = .00031405
INCLINATION    = 82.5312
RA_OF_ASC_NODE = 86.6124
ARG_OF_PERICENTER = 0.7941
MEAN_ANOMALY   = 359.3319

EPHEMERIS_TYPE = 0
CLASSIFICATION_TYPE = U
NORAD_CAT_ID   = 16719
ELEMENT_SET_NO = 999
REV_AT_EPOCH   = 17835
BSTAR          = .47555649E-3
MEAN_MOTION_DOT = .35197E-3
MEAN_MOTION_DDOT = 0

